id,category,satellite_name,tle_line1,tle_line2,inclination,eccentricity,period,perigee,apogee,epoch,raan,arg_perigee,mean_anomaly,mean_motion,semi_major_axis,velocity,orbit_type,satellite_age,bstar,rev_num,norad_number,ephemeris_type,intl_designator
5445,active,STARLINK-5458,1 54764U 22175G   25017.46072308 -.00000036  00000+0  15842-4 0  9991,2 54764  53.2160 112.5735 0001387  96.4837 263.6313 15.08841650117084,53.216,0.0001387,95.43745031163476,538.9158362683602,540.8348548892236,2025-01-17 11:03:26.474112,112.5735,96.4837,263.6313,15.0884165,6917.875345578792,7.590712134196939,LEO,2,1.5842000000000002e-05,11708,54764,0,22175G
5446,active,STARLINK-5471,1 54766U 22175J   25017.53337626  .00001963  00000+0  14142-3 0  9998,2 54766  53.2170 112.3118 0001539  92.9626 267.1542 15.08840769117090,53.217,0.0001539,95.43750603679506,538.8133770096292,540.94269986986,2025-01-17 12:48:03.708864,112.3118,92.9626,267.1542,15.08840769,6917.878038439745,7.5907106568122416,LEO,2,0.00014141999999999998,11709,54766,0,22175J
5448,active,STARLINK-5444,1 54768U 22175L   25017.23584686  .00004437  00000+0  29677-3 0  9995,2 54768  53.2175  99.0420 0001453  80.2259 279.8897 15.08830269117256,53.2175,0.0001453,95.43817018957219,538.9049605557038,540.9153052403244,2025-01-17 05:39:37.168704,99.042,80.2259,279.8897,15.08830269,6917.910132898014,7.590693048891332,LEO,2,0.00029676999999999997,11725,54768,0,22175L
5452,active,STARLINK-5453,1 54773U 22175R   25017.25736383  .00000721  00000+0  63402-4 0  9993,2 54773  53.2164 113.4342 0001297  85.1955 274.9186 15.08837408117054,53.2164,0.0001297,95.43771862793054,538.9910615684748,540.7855617965251,2025-01-17 06:10:36.234912,113.4342,85.1955,274.9186,15.08837408,6917.8883116825,7.590705020609495,LEO,2,6.3402e-05,11705,54773,0,22175R
5453,active,STARLINK-5454,1 54774U 22175S   25017.23479527  .00002093  00000+0  14959-3 0  9992,2 54774  53.2173  98.3376 0001452 105.6273 254.4880 15.08824226117268,53.2173,0.0001452,95.4385524294995,538.9241209583397,540.9330874249972,2025-01-17 05:38:06.311328,98.3376,105.6273,254.488,15.08824226,6917.9286041916685,7.5906829150765756,LEO,2,0.00014959,11726,54774,0,22175S
5454,active,STARLINK-5465,1 54775U 22175T   25017.25367987  .00000667  00000+0  59984-4 0  9994,2 54775  53.2182 113.4108 0001510  90.4680 269.6486 15.08837205117057,53.2182,0.000151,95.43773146818711,538.844330945376,540.9335334028929,2025-01-17 06:05:17.940768,113.41080000000001,90.468,269.6486,15.08837205,6917.888932174134,7.59070468018996,LEO,2,5.998400000000001e-05,11705,54775,0,22175T
5457,active,STARLINK-5450,1 54778U 22175W   25017.53660824  .00000444  00000+0  45998-4 0  9997,2 54778  53.2179  97.3683 0001475  93.8596 266.2565 15.08838870117305,53.2179,0.0001475,95.43762615288405,538.8634550573652,540.9042307910267,2025-01-17 12:52:42.951936,97.3683,93.8596,266.2565,15.0883887,6917.883842924196,7.590707472300025,LEO,2,4.5998e-05,11730,54778,0,22175W
5441,active,STARLINK-5220,1 54760U 22175C   25017.55180155  .00003809  00000+0  25742-3 0  9996,2 54760  53.2179 112.4303 0001101  98.6319 261.4798 15.08818549117098,53.2179,0.0001101,95.43891152149402,539.1842910164587,540.7076227161597,2025-01-17 13:14:35.65392,112.4303,98.6319,261.4798,15.08818549,6917.94595686631,7.590673395001227,LEO,2,0.00025742,11709,54760,0,22175C
5458,active,STARLINK-5447,1 54779U 22175X   25017.54028731 -.00000064  00000+0  14092-4 0  9994,2 54779  53.2175  97.3888 0001495  84.3597 275.7566 15.08849127117300,53.2175,0.0001495,95.43697737779186,538.8182725695597,540.8867104645242,2025-01-17 12:58:00.823584,97.38880000000002,84.3597,275.7566,15.08849127,6917.852491517042,7.590724672658895,LEO,2,1.4092e-05,11730,54779,0,22175X
5461,active,STARLINK-5439,1 54783U 22175AB  25017.59548303  .00000525  00000+0  51118-4 0  9997,2 54783  53.2170  97.0232 0001329  89.6491 270.4653 15.08827404117311,53.217,0.0001329,95.4383514100066,538.9994987443379,540.8382815853438,2025-01-17 14:17:29.733792,97.0232,89.6491,270.4653,15.08827404,6917.91889016484,7.590688244430154,LEO,2,5.1118e-05,11731,54783,0,22175AB
5462,active,STARLINK-5442,1 54784U 22175AC  25017.57750554  .00000707  00000+0  62524-4 0  9994,2 54784  53.2183 111.8786 0001482  93.8426 266.2736 15.08843322117109,53.2183,0.0001482,95.43734455418824,538.8450065888983,540.8954633265403,2025-01-17 13:51:36.478656,111.8786,93.8426,266.2736,15.08843322,6917.87023495772,7.590714938040095,LEO,2,6.2524e-05,11710,54784,0,22175AC
5463,active,STARLINK-5440,1 54785U 22175AD  25017.37834564  .00003302  00000+0  22549-3 0  9993,2 54785  53.2173  57.8839 0001473  92.8045 267.3116 15.08829493117841,53.2173,0.0001473,95.43821927399188,538.8934963341189,540.9315133580467,2025-01-17 09:04:49.063296,57.883900000000004,92.8045,267.3116,15.08829493,6917.912504846083,7.590691747578887,LEO,2,0.00022549,11784,54785,0,22175AD
5465,active,STARLINK-5399,1 54788U 22175AG  25017.38570729 -.00000793  00000+0 -31772-4 0  9999,2 54788  53.2195  97.8550 0001400 109.4603 250.6541 15.08834395117289,53.2195,0.00014,95.4379092080546,538.9290156068473,540.8660269128013,2025-01-17 09:15:25.109856,97.855,109.4603,250.6541,15.08834395,6917.897521259824,7.590699967975519,LEO,2,-3.1772e-05,11728,54788,0,22175AG
5467,active,STARLINK-5445,1 54790U 22175AJ  25017.44457689  .00000940  00000+0  77161-4 0  9992,2 54790  53.2169  97.5046 0001249  79.5963 280.5170 15.08833924117295,53.2169,0.0001249,95.4379390001043,539.0349153474663,540.7630065079065,2025-01-17 10:40:11.443296,97.5046,79.5963,280.517,15.08833924,6917.898960927686,7.590699178134022,LEO,2,7.7161e-05,11729,54790,0,22175AJ
5469,active,STARLINK-5431,1 54792U 22175AL  25017.56645895  .00000809  00000+0  68918-4 0  9999,2 54792  53.2191 111.8054 0001686  80.3136 279.8047 15.08837347117105,53.219100000000005,0.0001686,95.43772248633239,538.7221421348513,541.0548541364233,2025-01-17 13:35:42.05328,111.8054,80.3136,279.8047,15.08837347,6917.888498135637,7.590704918315943,LEO,2,6.8918e-05,11710,54792,0,22175AL
5470,active,STARLINK-5433,1 54793U 22175AM  25017.59271115  .00001993  00000+0  14324-3 0  9999,2 54793  53.2180  87.0597 0001629  89.3333 270.7845 15.08848464117451,53.218,0.0001629,95.43701931355778,538.7275995221307,540.9814365241036,2025-01-17 14:13:30.24336,87.05970000000002,89.3333,270.7845,15.08848464,6917.854518023117,7.590723560850981,LEO,2,0.00014324000000000002,11745,54793,0,22175AM
1413,active,YAOGAN-30 06B,1 44450U 19045B   25017.59858912  .00004755  00000+0  39247-3 0  9996,2 44450  34.9907 223.0731 0008457 259.0966 100.8789 14.98416123299158,34.9907,0.0008457,96.10147527757213,566.0490225227131,577.804128332391,2025-01-17 14:21:58.099968,223.0731,259.0966,100.8789,14.98416123,6949.926575427552,7.57318872552459,LEO,2,0.00039247,29915,44450,0,19045B
1833,active,STARLINK-1417,1 45693U 20035AN  25017.55595020 -.00006445  00000+0 -41412-3 0  9998,2 45693  53.0542 124.7116 0001252  69.0089 291.1034 15.06404957256141,53.0542,0.0001252,95.59182564479573,546.4663137515172,548.2004172262359,2025-01-17 13:20:34.09728,124.71159999999999,69.0089,291.1034,15.06404957,6925.333365488877,7.58662374386285,LEO,2,-0.00041411999999999997,25614,45693,0,20035AN
5478,active,STARLINK-5429,1 54801U 22175AV  25017.55908702  .00001091  00000+0  86622-4 0  9994,2 54801  53.2191 111.7643 0001799 115.0818 245.0361 15.08836936117104,53.219100000000005,0.0001799,95.43774848311375,538.6452260353635,541.1342827689969,2025-01-17 13:25:05.118528,111.7643,115.08180000000002,245.0361,15.08836936,6917.88975440218,7.590704229092104,LEO,2,8.6622e-05,11710,54801,0,22175AV
5483,active,STARLINK-5412,1 54806U 22175BA  25017.49238759 -.00000278  00000+0  63179-6 0  9991,2 54806  53.2191  97.0943 0001633 108.4665 251.6505 15.08838681117305,53.219100000000005,0.0001633,95.43763810758242,538.7547300964789,541.0141111482553,2025-01-17 11:49:02.287776,97.0943,108.4665,251.6505,15.08838681,6917.884420622367,7.590707155357904,LEO,2,6.3179e-07,11730,54806,0,22175BA
5477,active,STARLINK-5428,1 54800U 22175AU  25017.37970764  .00000075  00000+0  22837-4 0  9999,2 54800  53.2180 102.7807 0001657  88.3304 271.7878 15.08841673117213,53.218,0.0001657,95.43744885683574,538.7289833440091,541.0215672102358,2025-01-17 09:06:46.740096,102.7807,88.3304,271.7878,15.08841673,6917.8752752771225,7.590712172766565,LEO,2,2.2837000000000002e-05,11721,54800,0,22175AU
5486,active,STARLINK-5414,1 54809U 22175BD  25017.48870381  .00001147  00000+0  90116-4 0  9990,2 54809  53.2165  97.0710 0001225  83.3825 276.7307 15.08843703117306,53.2165,0.0001225,95.43732045518567,539.0216314365352,540.7165093587828,2025-01-17 11:43:44.009184,97.071,83.3825,276.7307,15.08843703,6917.869070397659,7.5907155769538255,LEO,2,9.0116e-05,11730,54809,0,22175BD
5487,active,STARLINK-5408,1 54810U 22175BE  25017.57567835 -.00000874  00000+0 -36844-4 0  9995,2 54810  53.2173  91.8976 0001700  84.3465 275.7721 15.08836371117382,53.2173,0.00017,95.43778422080469,538.7154398356961,541.0675229393673,2025-01-17 13:48:58.60944,91.8976,84.3465,275.7721,15.08836371,6917.891481387532,7.59070328161874,LEO,2,-3.6844e-05,11738,54810,0,22175BE
5490,active,STARLINK-5382,1 54820U 22177A   25017.61473875  .00001177  00000+0  10214-3 0  9990,2 54820  42.9993 234.4458 0001314 269.3814  90.6878 15.02540930114361,42.9993,0.0001314,95.83765548403396,558.2898106148041,560.1129071319147,2025-01-17 14:45:13.428,234.4458,269.3814,90.6878,15.0254093,6937.20135887336,7.580131461354607,LEO,2,0.00010214,11436,54820,0,22177A
5493,active,STARLINK-5106,1 54823U 22177D   25017.01311216 -.00000025  00000+0  13205-4 0  9993,2 54823  43.0023 237.6716 0001151 276.2607  83.8105 15.02532618114279,43.0023,0.0001151,95.83818565727803,558.4284683950746,560.0254180374031,2025-01-17 00:18:52.890624,237.67160000000004,276.2607,83.8105,15.02532618,6937.226943216239,7.580117483661303,LEO,2,1.3205000000000001e-05,11427,54823,0,22177D
